[{"OBJECT_NAME":"TROLL","OBJECT_ID":"2025-009BB","EPOCH":"2026-03-09T05:24:19.835712","MEAN_MOTION":15.28164315,"ECCENTRICITY":0.00018165,"INCLINATION":97.3932,"RA_OF_ASC_NODE":150.7169,"ARG_OF_PERICENTER":59.185,"MEAN_ANOMALY":300.9568,"EPHEMERIS_TYPE":0,"CLASSIFICATION_TYPE":"U","NORAD_CAT_ID":62658,"ELEMENT_SET_NO":999,"REV_AT_EPOCH":11817,"BSTAR":0.00048220305,"MEAN_MOTION_DOT":0.00013174,"MEAN_MOTION_DDOT":0},{"OBJECT_NAME":"STARLINK-34765","OBJECT_ID":"2025-263X","EPOCH":"2026-03-09T03:10:50.321568","MEAN_MOTION":15.27565968,"ECCENTRICITY":0.00015578,"INCLINATION":43.0007,"RA_OF_ASC_NODE":353.8452,"ARG_OF_PERICENTER":282.6332,"MEAN_ANOMALY":77.4345,"EPHEMERIS_TYPE":0,"CLASSIFICATION_TYPE":"U","NORAD_CAT_ID":66506,"ELEMENT_SET_NO":999,"REV_AT_EPOCH":1881,"BSTAR":0.0013939598,"MEAN_MOTION_DOT":0.0003828,"MEAN_MOTION_DDOT":0}]
